OBJECT_NAME,OBJECT_ID,EPOCH,MEAN_MOTION,ECCENTRICITY,INCLINATION,RA_OF_ASC_NODE,ARG_OF_PERICENTER,MEAN_ANOMALY,EPHEMERIS_TYPE,CLASSIFICATION_TYPE,NORAD_CAT_ID,ELEMENT_SET_NO,REV_AT_EPOCH,BSTAR,MEAN_MOTION_DOT,MEAN_MOTION_DDOT
QB50P1,2014-033R,2026-05-14T00:06:03.432096,15.17710042,.0008273,98.0978,142.7678,355.2575,4.8577,0,U,40025,999,64784,.2655E-3,.5281E-4,0
DTUSAT-2,2014-033W,2026-05-14T05:14:16.723104,15.14554811,.0007782,98.0863,129.8030,4.8197,355.3107,0,U,40030,999,64754,.24883E-3,.4516E-4,0
QB50P2,2014-033Y,2026-05-13T22:50:06.303840,15.14702636,.0005788,98.0752,128.7150,298.4534,61.6112,0,U,40032,999,64748,.22865E-3,.416E-4,0
PERSEUS-M1,2014-033AF,2026-05-13T09:06:01.692000,14.95509627,.00128449,97.9628,76.9475,57.4952,302.7508,0,U,40039,999,64543,.12396723E-3,.1314E-4,0
POLYITAN-1,2014-033AJ,2026-05-14T00:52:25.747104,15.32040868,.0005407,98.0970,157.0986,261.3207,98.7420,0,U,40042,999,64836,.38432E-3,.11811E-3,0
TIGRISAT,2014-033AK,2026-05-13T22:55:36.355296,14.85010197,.0049362,97.7791,284.7635,185.3200,174.7497,0,U,40043,999,64054,.1645E-3,.1378E-4,0
CANX-4,2014-034C,2026-05-14T02:32:04.964064,14.81198704,.001394,98.3168,8.1615,117.8576,242.4050,0,U,40055,999,63948,.78859E-4,.557E-5,0
CANX-5,2014-034D,2026-05-14T02:30:23.573664,14.81215717,.001394,98.3170,8.2017,118.0670,242.1953,0,U,40056,999,63029,.7879E-4,.557E-5,0
GONETS-M 10,2014-036C,2026-05-14T04:23:05.080416,12.42944457,.0021224,82.5112,328.8029,214.5681,145.4020,0,U,40063,999,53802,-.14591E-3,-.1E-6,0
METEOR-M 2,2014-037A,2026-05-14T05:13:09.426144,14.21451838,.0006576,98.5093,111.1628,126.7759,233.4023,0,U,40069,999,61449,.77782E-4,.128E-5,0
DX1,2014-037C,2026-05-14T04:16:19.574112,14.89875724,.0008033,98.3843,93.8239,33.2084,326.9634,0,U,40071,999,64104,.15169E-3,.1396E-4,0
UKUBE-1,2014-037F,2026-05-14T01:09:41.224320,15.12984313,.000039,98.4242,133.7511,72.2002,287.9268,0,U,40074,999,64339,.27869E-3,.484E-4,0
GAOFEN-2,2014-049A,2026-05-14T04:32:43.869696,14.80859709,.0007113,98.0128,198.4262,355.1531,4.9611,0,U,40118,999,63420,-.10822E-4,-.137E-5,0
BRITE-PL2 (HEWELIUSZ),2014-049B,2026-05-13T18:12:43.661088,14.94458910,.00131773,97.9059,245.5044,219.5014,140.5247,0,U,40119,999,63630,.74274626E-4,.742E-5,0
CBERS 4,2014-079A,2026-05-14T05:33:34.409664,14.35498619,.0002017,98.3557,192.1244,103.8228,256.3182,0,U,40336,999,59908,-.36989E-4,-.149E-5,0
SMAP,2015-003A,2026-05-14T03:57:54.977760,14.63407640,.000136,98.1285,141.7411,69.8844,290.2504,0,U,40376,999,60264,.56041E-4,.243E-5,0
GONETS-M 11,2015-020A,2026-05-14T04:47:04.212384,12.42875597,.0017401,82.4878,52.1661,75.8571,284.4441,0,U,40552,999,50451,-.48061E-3,-.57E-6,0
GONETS-M 12,2015-020B,2026-05-14T04:09:27.397728,12.42890010,.0016391,82.4911,53.2973,61.7228,298.5504,0,U,40553,999,50450,-.33857E-3,-.37E-6,0
GONETS-M 13,2015-020C,2026-05-14T05:26:21.626016,12.42868484,.0014909,82.4874,51.8890,47.7012,312.5328,0,U,40554,999,50448,-.10476E-2,-.135E-5,0
DMC3-FM1,2015-032A,2026-05-14T04:39:29.791584,14.85700771,.0005977,97.6514,0.6954,150.0728,210.0830,0,U,40715,999,58486,.12242E-3,.1011E-4,0
DMC3-FM2,2015-032B,2026-05-14T05:11:25.224288,14.85703114,.0006248,97.6568,2.2671,156.2726,203.8779,0,U,40716,999,58486,.1787E-4,.104E-5,0
DMC3-FM3,2015-032C,2026-05-13T16:48:48.424608,14.85699417,.00055039,97.6621,3.5018,156.2408,203.9062,0,U,40717,999,58479,-.33137957E-4,-.339E-5,0
CARBONITE 1 (CBNT-1),2015-032D,2026-05-14T04:31:38.953920,14.83477978,.0015665,97.6501,313.6843,50.0714,310.1874,0,U,40718,999,58430,.12407E-3,.971E-5,0
LILACSAT-2,2015-049K,2026-05-14T03:20:41.737344,15.50282282,.0007508,97.4693,169.7103,33.6540,326.5187,0,U,40908,999,59047,.22512E-3,.12661E-3,0
COSMOS 2507 (RODNIK-S 13),2015-050A,2026-05-14T04:23:37.642848,12.42925676,.0011158,82.4887,100.8401,65.4192,294.8049,0,U,40920,999,48263,-.49576E-3,-.59E-6,0
COSMOS 2508 (RODNIK-S 14),2015-050B,2026-05-14T05:14:16.004256,12.42913014,.0015455,82.4840,99.3361,95.8293,264.4549,0,U,40921,999,48262,-.69948E-4,0,0
COSMOS 2509 (RODNIK-S 15),2015-050C,2026-05-14T05:42:20.335968,12.42882739,.0015601,82.4849,99.4227,111.8863,248.3877,0,U,40922,999,48266,.25297E-4,.14E-6,0
