QB50P1                  
1 40025U 14033R   26134.00420639  .00005281  00000+0  26550-3 0  9998
2 40025  98.0978 142.7678 0008273 355.2575   4.8577 15.17710042647849
DTUSAT-2                
1 40030U 14033W   26134.21824911  .00004516  00000+0  24883-3 0  9995
2 40030  98.0863 129.8030 0007782   4.8197 355.3107 15.14554811647544
QB50P2                  
1 40032U 14033Y   26133.95146185  .00004160  00000+0  22865-3 0  9990
2 40032  98.0752 128.7150 0005788 298.4534  61.6112 15.14702636647480
PERSEUS-M1              
1 40039U 14033AF  26133.37918625  .00001314  00000+0  12397-3 0  9996
2 40039  97.9628  76.9475 0012844  57.4952 302.7508 14.95509627645433
POLYITAN-1              
1 40042U 14033AJ  26134.03640911  .00011811  00000+0  38432-3 0  9995
2 40042  98.0970 157.0986 0005407 261.3207  98.7420 15.32040868648362
TIGRISAT                
1 40043U 14033AK  26133.95528189  .00001378  00000+0  16450-3 0  9991
2 40043  97.7791 284.7635 0049362 185.3200 174.7497 14.85010197640545
CANX-4                  
1 40055U 14034C   26134.10561301  .00000557  00000+0  78859-4 0  9996
2 40055  98.3168   8.1615 0013940 117.8576 242.4050 14.81198704639484
CANX-5                  
1 40056U 14034D   26134.10443951  .00000557  00000+0  78790-4 0  9991
2 40056  98.3170   8.2017 0013940 118.0670 242.1953 14.81215717630296
GONETS-M 10             
1 40063U 14036C   26134.18269769 -.00000010  00000+0 -14591-3 0  9996
2 40063  82.5112 328.8029 0021224 214.5681 145.4020 12.42944457538020
METEOR-M 2              
1 40069U 14037A   26134.21747021  .00000128  00000+0  77782-4 0  9999
2 40069  98.5093 111.1628 0006576 126.7759 233.4023 14.21451838614494
DX1                     
1 40071U 14037C   26134.17800433  .00001396  00000+0  15169-3 0  9992
2 40071  98.3843  93.8239 0008033  33.2084 326.9634 14.89875724641040
UKUBE-1                 
1 40074U 14037F   26134.04839380  .00004840  00000+0  27869-3 0  9991
2 40074  98.4242 133.7511 0000390  72.2002 287.9268 15.12984313643396
GAOFEN-2                
1 40118U 14049A   26134.18939664 -.00000137  00000+0 -10822-4 0  9993
2 40118  98.0128 198.4262 0007113 355.1531   4.9611 14.80859709634208
BRITE-PL2 (HEWELIUSZ)   
1 40119U 14049B   26133.75883867  .00000742  00000+0  74275-4 0  9991
2 40119  97.9059 245.5044 0013177 219.5014 140.5247 14.94458910636307
CBERS 4                 
1 40336U 14079A   26134.23164826 -.00000149  00000+0 -36989-4 0  9999
2 40336  98.3557 192.1244 0002017 103.8228 256.3182 14.35498619599080
SMAP                    
1 40376U 15003A   26134.16521965  .00000243  00000+0  56041-4 0  9998
2 40376  98.1285 141.7411 0001360  69.8844 290.2504 14.63407640602648
GONETS-M 11             
1 40552U 15020A   26134.19935431 -.00000057  00000+0 -48061-3 0  9990
2 40552  82.4878  52.1661 0017401  75.8571 284.4441 12.42875597504514
GONETS-M 12             
1 40553U 15020B   26134.17323377 -.00000037  00000+0 -33857-3 0  9994
2 40553  82.4911  53.2973 0016391  61.7228 298.5504 12.42890010504503
GONETS-M 13             
1 40554U 15020C   26134.22663919 -.00000135  00000+0 -10476-2 0  9990
2 40554  82.4874  51.8890 0014909  47.7012 312.5328 12.42868484504480
DMC3-FM1                
1 40715U 15032A   26134.19409481  .00001011  00000+0  12242-3 0  9996
2 40715  97.6514   0.6954 0005977 150.0728 210.0830 14.85700771584861
DMC3-FM2                
1 40716U 15032B   26134.21626417  .00000104  00000+0  17870-4 0  9995
2 40716  97.6568   2.2671 0006248 156.2726 203.8779 14.85703114584869
DMC3-FM3                
1 40717U 15032C   26133.70056047 -.00000339  00000+0 -33138-4 0  9992
2 40717  97.6621   3.5018 0005503 156.2408 203.9062 14.85699417584797
CARBONITE 1 (CBNT-1)    
1 40718U 15032D   26134.18864530  .00000971  00000+0  12407-3 0  9995
2 40718  97.6501 313.6843 0015665  50.0714 310.1874 14.83477978584300
LILACSAT-2              
1 40908U 15049K   26134.13937196  .00012661  00000+0  22512-3 0  9995
2 40908  97.4693 169.7103 0007508  33.6540 326.5187 15.50282282590471
COSMOS 2507 (RODNIK-S *)
1 40920U 15050A   26134.18307457 -.00000059  00000+0 -49576-3 0  9996
2 40920  82.4887 100.8401 0011158  65.4192 294.8049 12.42925676482634
COSMOS 2508 (RODNIK-S *)
1 40921U 15050B   26134.21824079  .00000000  00000+0 -69948-4 0  9996
2 40921  82.4840  99.3361 0015455  95.8293 264.4549 12.42913014482624
COSMOS 2509 (RODNIK-S *)
1 40922U 15050C   26134.23773537  .00000014  00000+0  25297-4 0  9994
2 40922  82.4849  99.4227 0015601 111.8863 248.3877 12.42882739482669
